STARLETTE               
1 07646U 75010A   26064.71306424 -.00000121  00000+0  19229-4 0  9992
2 07646  49.8226 153.0271 0205559  81.2099 281.2011 13.82349089580229
LAGEOS 1                
1 08820U 76039A   26064.73746848 -.00000004  00000+0  00000+0 0  9991
2 08820 109.8180 143.9288 0044660 324.4325  65.1934  6.38664888906533
AJISAI (EGS)            
1 16908U 86061A   26064.79004931 -.00000081  00000+0  11784-3 0  9999
2 16908  50.0080 105.3396 0011256 277.0009 195.3478 12.44515600467514
COSMOS 1989 (ETALON 1)  
1 19751U 89001C   26064.61346689  .00000003  00000+0  00000+0 0  9993
2 19751  64.8849  75.7364 0023411 217.5677 189.1688  2.13156076289160
COSMOS 2024 (ETALON 2)  
1 20026U 89039C   26064.57130139 -.00000052  00000+0  00000+0 0  9992
2 20026  64.9968 314.1074 0020466 213.3990 300.6195  2.13204590286296
LAGEOS 2                
1 22195U 92070B   26064.58345068 -.00000009  00000+0  00000+0 0  9992
2 22195  52.6793 332.1374 0137771 142.0275  38.8022  6.47293330788714
STELLA                  
1 22824U 93061B   26064.74444971 -.00000036  00000+0  38528-5 0  9995
2 22824  98.7849 128.5709 0006524 168.5856 308.5701 14.27467374690018
LARETS                  
1 27944U 03042F   26064.76567485  .00000115  00000+0  31572-4 0  9999
2 27944  98.4008 224.8693 0012310   4.8475 355.2844 14.63847409198236
LARES                   
1 38077U 12006A   26064.75830611 -.00000036  00000+0  13761-4 0  9994
2 38077  69.4880 108.9147 0007503 154.5319 205.6078 12.54932185644096
LARES-2                 
1 53105U 22080A   26051.71998157 -.00000019  00000+0  00000+0 0  9996
2 53105  70.1780 345.2672 0005158   0.9590 359.1035  6.38965205 84226
